NORAD_CAT_ID,OBJECT_NAME,OBJECT_TYPE,EPOCH,MEAN_MOTION,ECCENTRICITY,INCLINATION,RA_OF_ASC_NODE,ARG_OF_PERICENTER,MEAN_ANOMALY,BSTAR,MEAN_MOTION_DOT,MEAN_MOTION_DDOT,TLE_LINE0,TLE_LINE1,TLE_LINE2,SEMIMAJOR_AXIS,PERIOD,APOGEE,PERIGEE,DECAYED
52101.0,STARLINK-3703,PAYLOAD,2023-09-16 02:31:33,15.08314126,0.0001372,53.216,194.6383,106.1952,253.9191,0.01128,0.00181268,0.0,0 STARLINK-3703,1 52101U 22029P   23259.10525054  .00181268  00000-0  11280-1 0  9996,2 52101  53.2160 194.6383 0001372 106.1952 253.9191 15.08314126 83933,6919.488,95.471,542.303,540.404,0.0
52101.0,STARLINK-3703,PAYLOAD,2023-09-16 14:00:01,15.08819786,0.0001412,53.2162,192.4925,95.4309,342.7934,0.0014828,0.00023376,0.0,0 STARLINK-3703,1 52101U 22029P   23259.58334491  .00023376  00000-0  14828-2 0  9998,2 52101  53.2162 192.4925 0001412  95.4309 342.7934 15.08819786 84007,6917.942,95.439,540.784,538.83,0.0
52101.0,STARLINK-3703,PAYLOAD,2023-09-17 14:00:01,15.08822347,0.0001337,53.2161,188.0035,92.0804,20.9296,0.0022432,0.00035576,0.0,0 STARLINK-3703,1 52101U 22029P   23260.58334491  .00035576  00000-0  22432-2 0  9995,2 52101  53.2161 188.0035 0001337  92.0804  20.9296 15.08822347  5857,6917.934,95.439,540.724,538.874,0.0
52101.0,STARLINK-3703,PAYLOAD,2023-09-18 06:00:00,15.08816832,0.0001369,53.2157,185.0125,74.1913,62.0518,9.8279e-06,-1.32e-06,0.0,0 STARLINK-3703,1 52101U 22029P   23261.25001157 -.00000132  00000-0  98279-5 0  9996,2 52101  53.2157 185.0125 0001369  74.1913  62.0518 15.08816832 84253,6917.951,95.439,540.763,538.869,0.0
52101.0,STARLINK-3703,PAYLOAD,2023-09-18 14:00:01,15.08802835,0.0001298,53.2156,183.5145,82.6316,65.1882,0.0031189,0.00049648,0.0,0 STARLINK-3703,1 52101U 22029P   23261.58334491  .00049648  00000-0  31189-2 0  9990,2 52101  53.2156 183.5145 0001298  82.6316  65.1882 15.08802835  5753,6917.994,95.44,540.757,538.961,0.0
52101.0,STARLINK-3703,PAYLOAD,2023-09-18 22:00:00,15.08875177,0.0001367,53.2155,182.0188,86.0258,73.3598,-0.0031465,-0.00050064,0.0,0 STARLINK-3703,1 52101U 22029P   23261.91667824 -.00050064  00000-0 -31465-2 0  9999,2 52101  53.2155 182.0188 0001367  86.0258  73.3598 15.08875177 84350,6917.773,95.435,540.584,538.692,0.0
52101.0,STARLINK-3703,PAYLOAD,2023-09-19 14:00:01,15.08821853,0.000129,53.2148,179.0254,101.414,81.2067,0.004564,0.00073065,0.0,0 STARLINK-3703,1 52101U 22029P   23262.58334491  .00073065  00000-0  45640-2 0  9998,2 52101  53.2148 179.0254 0001290 101.4140  81.2067 15.08821853 84451,6917.936,95.439,540.693,538.908,0.0
52101.0,STARLINK-3703,PAYLOAD,2023-09-19 22:00:00,15.0891744,0.0001418,53.2148,177.5299,93.6921,100.5101,-0.0074622,-0.00117367,0.0,0 STARLINK-3703,1 52101U 22029P   23262.91667824 -.00117367  00000-0 -74622-2 0  9992,2 52101  53.2148 177.5299 0001418  93.6921 100.5101 15.08917440 84502,6917.644,95.433,540.49,538.528,0.0
52101.0,STARLINK-3703,PAYLOAD,2023-09-20 00:19:21,15.08853769,0.0001526,53.2161,177.0951,82.252,277.8645,0.00052634,8.102e-05,0.0,0 STARLINK-3703,1 52101U 22029P   23263.01344220  .00008102  00000-0  52634-3 0  9990,2 52101  53.2161 177.0951 0001526  82.2520 277.8645 15.08853769 84522,6917.838,95.437,540.759,538.648,0.0
52101.0,STARLINK-3703,PAYLOAD,2023-09-20 03:30:07,15.08863317,0.0001468,53.2159,176.5016,88.5603,271.5557,0.00076662,0.00011942,0.0,0 STARLINK-3703,1 52101U 22029P   23263.14592020  .00011942  00000-0  76662-3 0  9990,2 52101  53.2159 176.5016 0001468  88.5603 271.5557 15.08863317 84546,6917.809,95.436,540.69,538.659,0.0
52101.0,STARLINK-3703,PAYLOAD,2023-09-20 17:48:36,15.08828518,0.000193,53.2155,173.826,92.9743,267.147,-0.00031353,-5.273e-05,0.0,0 STARLINK-3703,1 52101U 22029P   23263.74209306 -.00005273  00000-0 -31353-3 0  9998,2 52101  53.2155 173.8260 0001930  92.9743 267.1470 15.08828518 84630,6917.915,95.438,541.116,538.445,0.0
52101.0,STARLINK-3703,PAYLOAD,2023-09-21 01:45:33,15.08812968,0.0001423,53.2146,172.3372,93.5109,266.6046,0.00033656,5.069e-05,0.0,0 STARLINK-3703,1 52101U 22029P   23264.07330145  .00005069  00000-0  33656-3 0  9990,2 52101  53.2146 172.3372 0001423  93.5109 266.6046 15.08812968 84688,6917.963,95.439,540.812,538.844,0.0
52101.0,STARLINK-3703,PAYLOAD,2023-09-21 03:20:56,15.08813685,0.0001434,53.2145,172.0399,96.9903,263.1253,0.00037599,5.697e-05,0.0,0 STARLINK-3703,1 52101U 22029P   23264.13954255  .00005697  00000-0  37599-3 0  9998,2 52101  53.2145 172.0399 0001434  96.9903 263.1253 15.08813685 84694,6917.961,95.439,540.818,538.834,0.0
52101.0,STARLINK-3703,PAYLOAD,2023-09-22 00:00:57,15.08849543,0.0001465,53.2152,168.1741,82.154,277.9618,0.0010252,0.0001607,0.0,0 STARLINK-3703,1 52101U 22029P   23265.00066415  .00016070  00000-0  10252-2 0  9990,2 52101  53.2152 168.1741 0001465  82.1540 277.9618 15.08849543 84822,6917.851,95.437,540.73,538.703,0.0
52101.0,STARLINK-3703,PAYLOAD,2023-09-22 03:11:43,15.08864727,0.0001525,53.2151,167.5786,80.1627,279.9538,0.0013864,0.0002186,0.0,0 STARLINK-3703,1 52101U 22029P   23265.13314117  .00021860  00000-0  13864-2 0  9994,2 52101  53.2151 167.5786 0001525  80.1627 279.9538 15.08864727 84840,6917.805,95.436,540.725,538.615,0.0
52101.0,STARLINK-3703,PAYLOAD,2023-09-22 20:40:57,15.08869793,0.0001527,53.2153,164.3078,74.0226,286.0935,0.0011233,0.00017649,0.0,0 STARLINK-3703,1 52101U 22029P   23265.86177781  .00017649  00000-0  11233-2 0  9996,2 52101  53.2153 164.3078 0001527  74.0226 286.0935 15.08869793 84950,6917.789,95.436,540.711,538.598,0.0
52101.0,STARLINK-3703,PAYLOAD,2023-09-22 23:51:43,15.08867984,0.0001382,53.2154,163.7143,91.4863,268.6288,0.0017766,0.00028121,0.0,0 STARLINK-3703,1 52101U 22029P   23265.99425643  .00028121  00000-0  17766-2 0  9997,2 52101  53.2154 163.7143 0001382  91.4863 268.6288 15.08867984 84975,6917.795,95.436,540.616,538.704,0.0
52101.0,STARLINK-3703,PAYLOAD,2023-09-23 03:02:29,15.08872153,0.0001404,53.2156,163.1194,76.7465,283.3683,0.0016303,0.00025776,0.0,0 STARLINK-3703,1 52101U 22029P   23266.12673421  .00025776  00000-0  16303-2 0  9991,2 52101  53.2156 163.1194 0001404  76.7465 283.3683 15.08872153 84995,6917.782,95.436,540.618,538.676,0.0
52101.0,STARLINK-3703,PAYLOAD,2023-09-23 23:42:31,15.0884379,0.0001194,53.2162,159.2539,88.6164,271.4965,0.0012709,0.00019998,0.0,0 STARLINK-3703,1 52101U 22029P   23266.98785943  .00019998  00000-0  12709-2 0  9993,2 52101  53.2162 159.2539 0001194  88.6164 271.4965 15.08843790 85127,6917.869,95.437,540.56,538.908,0.0
52101.0,STARLINK-3703,PAYLOAD,2023-09-24 17:11:45,15.08837417,0.0001243,53.2157,155.9804,99.4331,260.6801,0.0015543,0.00024533,0.0,0 STARLINK-3703,1 52101U 22029P   23267.71650323  .00024533  00000-0  15543-2 0  9998,2 52101  53.2157 155.9804 0001243  99.4331 260.6801 15.08837417 85230,6917.888,95.438,540.613,538.893,0.0
52101.0,STARLINK-3703,PAYLOAD,2023-09-24 21:57:55,15.08845546,0.000137,53.2161,155.0885,104.04,256.0745,0.0012041,0.0001893,0.0,0 STARLINK-3703,1 52101U 22029P   23267.91522161  .00018930  00000-0  12041-2 0  9992,2 52101  53.2161 155.0885 0001370 104.0400 256.0745 15.08845546 85267,6917.863,95.437,540.676,538.781,0.0
52101.0,STARLINK-3703,PAYLOAD,2023-09-25 09:05:36,15.08860569,0.0001328,53.2166,153.0089,90.9354,269.179,0.00095383,0.00014933,0.0,0 STARLINK-3703,1 52101U 22029P   23268.37889797  .00014933  00000-0  95383-3 0  9994,2 52101  53.2166 153.0089 0001328  90.9354 269.1790 15.08860569 85335,6917.818,95.436,540.601,538.764,0.0
52101.0,STARLINK-3703,PAYLOAD,2023-09-25 21:48:41,15.08850843,0.0001411,53.217,150.6343,107.8719,252.2427,0.00028691,4.283e-05,0.0,0 STARLINK-3703,1 52101U 22029P   23268.90881592  .00004283  00000-0  28691-3 0  9993,2 52101  53.2170 150.6343 0001411 107.8719 252.2427 15.08850843 85415,6917.847,95.437,540.688,538.736,0.0
52101.0,STARLINK-3703,PAYLOAD,2023-09-26 00:59:27,15.08854247,0.0001396,53.2168,150.0394,109.1984,250.916,0.00030573,4.583e-05,0.0,0 STARLINK-3703,1 52101U 22029P   23269.04129410  .00004583  00000-0  30573-3 0  9998,2 52101  53.2168 150.0394 0001396 109.1984 250.9160 15.08854247 85436,6917.837,95.437,540.668,538.736,0.0
52101.0,STARLINK-3703,PAYLOAD,2023-09-26 21:39:29,15.08825115,0.0001526,53.2164,146.1737,93.0013,267.1154,-0.00018391,-3.213e-05,0.0,0 STARLINK-3703,1 52101U 22029P   23269.90242948 -.00003213  00000-0 -18391-3 0  9990,2 52101  53.2164 146.1737 0001526  93.0013 267.1154 15.08825115 85567,6917.926,95.438,540.847,538.735,0.0
52101.0,STARLINK-3703,PAYLOAD,2023-09-27 00:50:16,15.08830109,0.0001693,53.2162,145.5779,91.5346,268.584,-5.9694e-05,-1.238e-05,0.0,0 STARLINK-3703,1 52101U 22029P   23270.03491012 -.00001238  00000-0 -59694-4 0  9991,2 52101  53.2162 145.5779 0001693  91.5346 268.5840 15.08830109 85589,6917.911,95.438,540.947,538.604,0.0
52101.0,STARLINK-3703,PAYLOAD,2023-09-27 02:25:39,15.08830913,0.0001689,53.2162,145.276,86.4869,273.6316,-3.8503e-05,-9.01e-06,0.0,0 STARLINK-3703,1 52101U 22029P   23270.10114994 -.00000901  00000-0 -38503-4 0  9992,2 52101  53.2162 145.2760 0001689  86.4869 273.6316 15.08830913 85593,6917.908,95.438,540.942,538.605,0.0
52101.0,STARLINK-3703,PAYLOAD,2023-09-28 00:41:03,15.088382,0.0001542,53.2156,141.1118,94.8229,265.2939,0.0005168,7.946e-05,0.0,0 STARLINK-3703,1 52101U 22029P   23271.02851626  .00007946  00000-0  51680-3 0  9998,2 52101  53.2156 141.1118 0001542  94.8229 265.2939 15.08838200 85730,6917.886,95.438,540.818,538.684,0.0
52101.0,STARLINK-3703,PAYLOAD,2023-09-28 14:59:32,15.08842514,0.0001584,53.2151,138.4356,94.3237,265.7936,0.00037757,5.727e-05,0.0,0 STARLINK-3703,1 52101U 22029P   23271.62467672  .00005727  00000-0  37757-3 0  9992,2 52101  53.2151 138.4356 0001584  94.3237 265.7936 15.08842514 85823,6917.873,95.437,540.833,538.642,0.0
52101.0,STARLINK-3703,PAYLOAD,2023-09-28 21:21:04,15.08851207,0.0001567,53.2145,137.247,93.7815,266.3356,0.00050888,7.823e-05,0.0,0 STARLINK-3703,1 52101U 22029P   23271.88963334  .00007823  00000-0  50888-3 0  9995,2 52101  53.2145 137.2470 0001567  93.7815 266.3356 15.08851207 85862,6917.846,95.437,540.795,538.627,0.0
